{"type": "FeatureCollection", "features": [ {"type": "Feature", "properties": {"norad_id": 61186, "name": "BEIDOU-3 M25 (C47)", "group": "beidou", "lat": 4.996241806210843, "lon": 124.62231243295129, "alt_km": 21536.79593782469, "timestamp": "2025-12-27T21:25:02.779311+00:00", "meta": {"OBJECT_NAME": "BEIDOU-3 M25 (C47)", "OBJECT_ID": "2024-168B", "EPOCH": "2025-12-27T08:49:57.848160", "MEAN_MOTION": 1.86229881, "ECCENTRICITY": 0.000539, "INCLINATION": 54.6289, "RA_OF_ASC_NODE": 308.2141, "ARG_OF_PERICENTER": 300.5996, "MEAN_ANOMALY": 241.7182, "EPHEMERIS_TYPE": 0, "CLASSIFICATION_TYPE": "U", "NORAD_CAT_ID": 61186, "ELEMENT_SET_NO": 999, "REV_AT_EPOCH": 858, "BSTAR": 0, "MEAN_MOTION_DOT": -6.1e-07, "MEAN_MOTION_DDOT": 0}, "tle": {"line1": "1 61186U 24168B   25361.36803065 -.00000061  00000+0  00000+0 0  9997", "line2": "2 61186  54.6289 308.2141 0005390 300.5996 241.7182  1.86229881  8587"}}, "geometry": {"type": "Point", "coordinates": [124.62231243295129, 4.996241806210843]}}, {"type": "Feature", "properties": {"norad_id": 61187, "name": "BEIDOU-3 M27 (C49)", "group": "beidou", "lat": -39.44948047384994, "lon": -87.57354978909105, "alt_km": 21526.895486713354, "timestamp": "2025-12-27T21:25:02.779323+00:00", "meta": {"OBJECT_NAME": "BEIDOU-3 M27 (C49)", "OBJECT_ID": "2024-168C", "EPOCH": "2025-12-26T02:09:38.712960", "MEAN_MOTION": 1.86230112, "ECCENTRICITY": 0.00025351, "INCLINATION": 54.6256, "RA_OF_ASC_NODE": 308.2421, "ARG_OF_PERICENTER": 341.7609, "MEAN_ANOMALY": 198.677, "EPHEMERIS_TYPE": 0, "CLASSIFICATION_TYPE": "U", "NORAD_CAT_ID": 61187, "ELEMENT_SET_NO": 999, "REV_AT_EPOCH": 603, "BSTAR": 0, "MEAN_MOTION_DOT": -5.6e-07, "MEAN_MOTION_DDOT": 0}, "tle": {"line1": "1 61187U 24168C   25360.09003140 -.00000056  00000+0  00000+0 0  9997", "line2": "2 61187  54.6256 308.2421 0002535 341.7609 198.6770  1.86230112  6039"}}, "geometry": {"type": "Point", "coordinates": [-87.57354978909105, -39.44948047384994]}}]}